start=new Date('2022-12-24T00:00:00.000Z').valueOf();
sats=[{"RA_OF_ASC_NODE":"24.8295","ARG_OF_PERICENTER":"28.0535","MEAN_ELEMENT_THEORY":"SGP4","MEAN_MOTION_DDOT":"0.0000000000000","REV_AT_EPOCH":"2444","BSTAR":"0.00021613000000","PERIOD":"95.438","TIME_SYSTEM":"UTC","CENTER_NAME":"EARTH","GP_ID":"221309522","ELEMENT_SET_NO":"999","MEAN_MOTION":"15.08838324","APOAPSIS":"541.553","ECCENTRICITY":"0.00026060","INCLINATION":"53.2173","DECAY_DATE":null,"EPHEMERIS_TYPE":"0","NORAD_CAT_ID":"53152","REF_FRAME":"TEME","SITE":"AFETR","SEMIMAJOR_AXIS":"6917.886","OBJECT_ID":"2022-083W","MEAN_ANOMALY":"332.0597","OBJECT_NAME":"STARLINK-4045","LAUNCH_DATE":"2022-07-17","TLE_LINE1":"1 53152U 22083W   22357.82247692  .00003153  00000-0  21613-3 0  9998","COUNTRY_CODE":"US","EPOCH":"2022-12-23T19:44:22.005888","RCS_SIZE":"LARGE","OBJECT_TYPE":"PAYLOAD","PERIAPSIS":"537.948","FILE":"3720518","CLASSIFICATION_TYPE":"U","TLE_LINE2":"2 53152  53.2173  24.8295 0002606  28.0535 332.0597 15.08838324 24441","MEAN_MOTION_DOT":"0.00003153"},{"EPHEMERIS_TYPE":"0","NORAD_CAT_ID":"53153","REF_FRAME":"TEME","DECAY_DATE":null,"INCLINATION":"53.2189","APOAPSIS":"541.338","ECCENTRICITY":"0.00023070","MEAN_MOTION":"15.08841106","ELEMENT_SET_NO":"999","GP_ID":"221309707","TIME_SYSTEM":"UTC","CENTER_NAME":"EARTH","PERIOD":"95.437","BSTAR":"0.00015472000000","REV_AT_EPOCH":"2444","MEAN_ELEMENT_THEORY":"SGP4","MEAN_MOTION_DDOT":"0.0000000000000","ARG_OF_PERICENTER":"30.5826","RA_OF_ASC_NODE":"24.8797","MEAN_MOTION_DOT":"0.00002175","TLE_LINE2":"2 53153  53.2189  24.8797 0002307  30.5826 329.5300 15.08841106 24440","CLASSIFICATION_TYPE":"U","FILE":"3720518","PERIAPSIS":"538.146","OBJECT_TYPE":"PAYLOAD","COUNTRY_CODE":"US","EPOCH":"2022-12-23T19:28:27.274656","RCS_SIZE":"LARGE","TLE_LINE1":"1 53153U 22083X   22357.81142679  .00002175  00000-0  15472-3 0  9996","OBJECT_NAME":"STARLINK-4098","LAUNCH_DATE":"2022-07-17","MEAN_ANOMALY":"329.5300","OBJECT_ID":"2022-083X","SEMIMAJOR_AXIS":"6917.877","SITE":"AFETR"},{"ARG_OF_PERICENTER":"35.0948","RA_OF_ASC_NODE":"24.8482","REV_AT_EPOCH":"2444","MEAN_ELEMENT_THEORY":"SGP4","MEAN_MOTION_DDOT":"0.0000000000000","BSTAR":"0.00017535000000","CENTER_NAME":"EARTH","TIME_SYSTEM":"UTC","PERIOD":"95.438","GP_ID":"221308719","APOAPSIS":"541.476","ECCENTRICITY":"0.00024930","ELEMENT_SET_NO":"999","MEAN_MOTION":"15.08838068","DECAY_DATE":null,"INCLINATION":"53.2194","NORAD_CAT_ID":"53154","EPHEMERIS_TYPE":"0","REF_FRAME":"TEME","SITE":"AFETR","SEMIMAJOR_AXIS":"6917.886","OBJECT_ID":"2022-083Y","MEAN_ANOMALY":"325.0208","OBJECT_NAME":"STARLINK-4077","LAUNCH_DATE":"2022-07-17","COUNTRY_CODE":"US","RCS_SIZE":"LARGE","EPOCH":"2022-12-23T19:39:03.322080","TLE_LINE1":"1 53154U 22083Y   22357.81878845  .00002503  00000-0  17535-3 0  9995","FILE":"3720518","PERIAPSIS":"538.027","OBJECT_TYPE":"PAYLOAD","CLASSIFICATION_TYPE":"U","MEAN_MOTION_DOT":"0.00002503","TLE_LINE2":"2 53154  53.2194  24.8482 0002493  35.0948 325.0208 15.08838068 24440"},{"MEAN_ANOMALY":"319.9679","OBJECT_NAME":"STARLINK-4088","LAUNCH_DATE":"2022-07-17","SITE":"AFETR","SEMIMAJOR_AXIS":"6917.862","OBJECT_ID":"2022-083Z","CLASSIFICATION_TYPE":"U","MEAN_MOTION_DOT":"0.00003675","TLE_LINE2":"2 53155  53.2195  24.9141 0002339  40.1486 319.9679 15.08846029 25089","COUNTRY_CODE":"US","EPOCH":"2022-12-23T19:17:51.608256","RCS_SIZE":"LARGE","TLE_LINE1":"1 53155U 22083Z   22357.80406954  .00003675  00000-0  24887-3 0  9992","FILE":"3720518","OBJECT_TYPE":"PAYLOAD","PERIAPSIS":"538.109","BSTAR":"0.00024887000000","CENTER_NAME":"EARTH","TIME_SYSTEM":"UTC","PERIOD":"95.437","ARG_OF_PERICENTER":"40.1486","RA_OF_ASC_NODE":"24.9141","REV_AT_EPOCH":"2508","MEAN_ELEMENT_THEORY":"SGP4","MEAN_MOTION_DDOT":"0.0000000000000","DECAY_DATE":null,"INCLINATION":"53.2195","NORAD_CAT_ID":"53155","EPHEMERIS_TYPE":"0","REF_FRAME":"TEME","GP_ID":"221308925","APOAPSIS":"541.345","ECCENTRICITY":"0.00023390","ELEMENT_SET_NO":"999","MEAN_MOTION":"15.08846029"},{"REF_FRAME":"TEME","NORAD_CAT_ID":"53156","EPHEMERIS_TYPE":"0","INCLINATION":"53.2193","DECAY_DATE":null,"ELEMENT_SET_NO":"999","MEAN_MOTION":"15.08831904","ECCENTRICITY":"0.00021430","APOAPSIS":"541.253","GP_ID":"221309131","PERIOD":"95.438","CENTER_NAME":"EARTH","TIME_SYSTEM":"UTC","BSTAR":"0.00007745500000","MEAN_MOTION_DDOT":"0.0000000000000","MEAN_ELEMENT_THEORY":"SGP4","REV_AT_EPOCH":"2444","RA_OF_ASC_NODE":"24.9099","ARG_OF_PERICENTER":"33.2402","TLE_LINE2":"2 53156  53.2193  24.9099 0002143  33.2402 326.8725 15.08831904 24448","MEAN_MOTION_DOT":"0.00000944","CLASSIFICATION_TYPE":"U","OBJECT_TYPE":"PAYLOAD","PERIAPSIS":"538.288","FILE":"3720518","TLE_LINE1":"1 53156U 22083AA  22357.80502636  .00000944  00000-0  77455-4 0  9993","EPOCH":"2022-12-23T19:19:14.277504","RCS_SIZE":"LARGE","COUNTRY_CODE":"US","LAUNCH_DATE":"2022-07-17","OBJECT_NAME":"STARLINK-4087","MEAN_ANOMALY":"326.8725","OBJECT_ID":"2022-083AA","SITE":"AFETR","SEMIMAJOR_AXIS":"6917.905"},{"REV_AT_EPOCH":"2444","MEAN_ELEMENT_THEORY":"SGP4","MEAN_MOTION_DDOT":"0.0000000000000","ARG_OF_PERICENTER":"51.6629","RA_OF_ASC_NODE":"24.9473","CENTER_NAME":"EARTH","TIME_SYSTEM":"UTC","PERIOD":"95.437","BSTAR":"0.00006063200000","APOAPSIS":"541.250","ECCENTRICITY":"0.00022050","MEAN_MOTION":"15.08846648","ELEMENT_SET_NO":"999","GP_ID":"221309316","EPHEMERIS_TYPE":"0","NORAD_CAT_ID":"53157","REF_FRAME":"TEME","DECAY_DATE":null,"INCLINATION":"53.2192","OBJECT_ID":"2022-083AB","SEMIMAJOR_AXIS":"6917.860","SITE":"AFETR","OBJECT_NAME":"STARLINK-4093","LAUNCH_DATE":"2022-07-17","MEAN_ANOMALY":"308.4561","FILE":"3720518","PERIAPSIS":"538.200","OBJECT_TYPE":"PAYLOAD","COUNTRY_CODE":"US","RCS_SIZE":"LARGE","EPOCH":"2022-12-23T19:07:15.869280","TLE_LINE1":"1 53157U 22083AB  22357.79671145  .00000677  00000-0  60632-4 0  9996","MEAN_MOTION_DOT":"0.00000677","TLE_LINE2":"2 53157  53.2192  24.9473 0002205  51.6629 308.4561 15.08846648 24443","CLASSIFICATION_TYPE":"U"},{"SEMIMAJOR_AXIS":"6917.903","SITE":"AFETR","OBJECT_ID":"2022-083AC","MEAN_ANOMALY":"297.7747","OBJECT_NAME":"STARLINK-4054","LAUNCH_DATE":"2022-07-17","TLE_LINE1":"1 53158U 22083AC  22357.80775799  .00000900  00000-0  74675-4 0  9990","COUNTRY_CODE":"US","EPOCH":"2022-12-23T19:23:10.290336","RCS_SIZE":"LARGE","OBJECT_TYPE":"PAYLOAD","PERIAPSIS":"538.588","FILE":"3720518","CLASSIFICATION_TYPE":"U","TLE_LINE2":"2 53158  53.2160  24.8985 0001705  62.3418 297.7747 15.08832714 24440","MEAN_MOTION_DOT":"0.00000900","RA_OF_ASC_NODE":"24.8985","ARG_OF_PERICENTER":"62.3418","MEAN_ELEMENT_THEORY":"SGP4","MEAN_MOTION_DDOT":"0.0000000000000","REV_AT_EPOCH":"2444","BSTAR":"0.00007467500000","PERIOD":"95.438","TIME_SYSTEM":"UTC","CENTER_NAME":"EARTH","GP_ID":"221308284","ELEMENT_SET_NO":"999","MEAN_MOTION":"15.08832714","APOAPSIS":"540.947","ECCENTRICITY":"0.00017050","INCLINATION":"53.2160","DECAY_DATE":null,"NORAD_CAT_ID":"53158","EPHEMERIS_TYPE":"0","REF_FRAME":"TEME"},{"CLASSIFICATION_TYPE":"U","TLE_LINE2":"2 53159  53.2188  24.9757 0002792  22.7894 337.3221 15.08825987 24446","MEAN_MOTION_DOT":"0.00001106","TLE_LINE1":"1 53159U 22083AD  22357.78936092  .00001106  00000-0  87639-4 0  9996","COUNTRY_CODE":"US","RCS_SIZE":"LARGE","EPOCH":"2022-12-23T18:56:40.783488","OBJECT_TYPE":"PAYLOAD","PERIAPSIS":"537.857","FILE":"3720518","MEAN_ANOMALY":"337.3221","OBJECT_NAME":"STARLINK-4111","LAUNCH_DATE":"2022-07-17","SITE":"AFETR","SEMIMAJOR_AXIS":"6917.923","OBJECT_ID":"2022-083AD","INCLINATION":"53.2188","DECAY_DATE":null,"NORAD_CAT_ID":"53159","EPHEMERIS_TYPE":"0","REF_FRAME":"TEME","GP_ID":"221308491","ELEMENT_SET_NO":"999","MEAN_MOTION":"15.08825987","APOAPSIS":"541.720","ECCENTRICITY":"0.00027920","BSTAR":"0.00008763900000","PERIOD":"95.438","CENTER_NAME":"EARTH","TIME_SYSTEM":"UTC","RA_OF_ASC_NODE":"24.9757","ARG_OF_PERICENTER":"22.7894","MEAN_ELEMENT_THEORY":"SGP4","MEAN_MOTION_DDOT":"0.0000000000000","REV_AT_EPOCH":"2444"},{"ECCENTRICITY":"0.00019160","APOAPSIS":"541.067","MEAN_MOTION":"15.08841368","ELEMENT_SET_NO":"999","GP_ID":"221309523","REF_FRAME":"TEME","NORAD_CAT_ID":"53160","EPHEMERIS_TYPE":"0","DECAY_DATE":null,"INCLINATION":"53.2172","REV_AT_EPOCH":"2444","MEAN_MOTION_DDOT":"0.0000000000000","MEAN_ELEMENT_THEORY":"SGP4","ARG_OF_PERICENTER":"49.2545","RA_OF_ASC_NODE":"24.9286","TIME_SYSTEM":"UTC","CENTER_NAME":"EARTH","PERIOD":"95.437","BSTAR":"0.00027947000000","FILE":"3720518","OBJECT_TYPE":"PAYLOAD","PERIAPSIS":"538.416","EPOCH":"2022-12-23T19:12:34.003584","RCS_SIZE":"LARGE","COUNTRY_CODE":"US","TLE_LINE1":"1 53160U 22083AE  22357.80039356  .00004163  00000-0  27947-3 0  9999","MEAN_MOTION_DOT":"0.00004163","TLE_LINE2":"2 53160  53.2172  24.9286 0001916  49.2545 310.8613 15.08841368 24444","CLASSIFICATION_TYPE":"U","OBJECT_ID":"2022-083AE","SITE":"AFETR","SEMIMAJOR_AXIS":"6917.876","LAUNCH_DATE":"2022-07-17","OBJECT_NAME":"STARLINK-4096","MEAN_ANOMALY":"310.8613"},{"OBJECT_ID":"2022-083AF","SITE":"AFETR","SEMIMAJOR_AXIS":"6917.922","OBJECT_NAME":"STARLINK-4055","LAUNCH_DATE":"2022-07-17","MEAN_ANOMALY":"329.3126","OBJECT_TYPE":"PAYLOAD","PERIAPSIS":"538.147","FILE":"3720420","TLE_LINE1":"1 53161U 22083AF  22357.51335249  .00001898  00000-0  13740-3 0  9996","COUNTRY_CODE":"US","EPOCH":"2022-12-23T12:19:13.655136","RCS_SIZE":"LARGE","TLE_LINE2":"2 53161  53.2197  26.2328 0002370  30.8004 329.3126 15.08826411 25037","MEAN_MOTION_DOT":"0.00001898","CLASSIFICATION_TYPE":"U","MEAN_ELEMENT_THEORY":"SGP4","MEAN_MOTION_DDOT":"0.0000000000000","REV_AT_EPOCH":"2503","RA_OF_ASC_NODE":"26.2328","ARG_OF_PERICENTER":"30.8004","PERIOD":"95.438","TIME_SYSTEM":"UTC","CENTER_NAME":"EARTH","BSTAR":"0.00013740000000","MEAN_MOTION":"15.08826411","ELEMENT_SET_NO":"999","APOAPSIS":"541.426","ECCENTRICITY":"0.00023700","GP_ID":"221281746","NORAD_CAT_ID":"53161","EPHEMERIS_TYPE":"0","REF_FRAME":"TEME","INCLINATION":"53.2197","DECAY_DATE":null}];
